[{"OBJECT_NAME":"JILIN-1 GAOFEN 2F","OBJECT_ID":"2021-097A","EPOCH":"2026-03-09T22:15:16.366464","MEAN_MOTION":15.06938169,"ECCENTRICITY":0.00186372,"INCLINATION":97.6538,"RA_OF_ASC_NODE":195.5232,"ARG_OF_PERICENTER":201.1609,"MEAN_ANOMALY":158.885,"EPHEMERIS_TYPE":0,"CLASSIFICATION_TYPE":"U","NORAD_CAT_ID":49338,"ELEMENT_SET_NO":999,"REV_AT_EPOCH":24136,"BSTAR":0.0003789548,"MEAN_MOTION_DOT":5.624e-5,"MEAN_MOTION_DDOT":0},{"OBJECT_NAME":"STARLINK-35254","OBJECT_ID":"2025-211Y","EPOCH":"2026-03-09T15:52:20.572608","MEAN_MOTION":15.0566699,"ECCENTRICITY":4.843e-5,"INCLINATION":97.6022,"RA_OF_ASC_NODE":114.1278,"ARG_OF_PERICENTER":101.373,"MEAN_ANOMALY":258.7551,"EPHEMERIS_TYPE":0,"CLASSIFICATION_TYPE":"U","NORAD_CAT_ID":65674,"ELEMENT_SET_NO":999,"REV_AT_EPOCH":2704,"BSTAR":0.00037087316,"MEAN_MOTION_DOT":5.297e-5,"MEAN_MOTION_DDOT":0}]
